{
    "links": {
        "self": "http://www.neowsapp.com/rest/v1/neo/3359096?api_key=iIulBulltgU6a56xZRHN4H3l9WmuAYTsLGpBGhQ2"
    },
    "id": "3359096",
    "neo_reference_id": "3359096",
    "name": "(2006 WX)",
    "designation": "2006 WX",
    "nasa_jpl_url": "http://ssd.jpl.nasa.gov/sbdb.cgi?sstr=3359096",
    "absolute_magnitude_h": 25.1,
    "estimated_diameter": {
        "kilometers": {
            "estimated_diameter_min": 0.0253837029,
            "estimated_diameter_max": 0.0567596853
        },
        "meters": {
            "estimated_diameter_min": 25.3837029364,
            "estimated_diameter_max": 56.7596852866
        },
        "miles": {
            "estimated_diameter_min": 0.0157726969,
            "estimated_diameter_max": 0.0352688224
        },
        "feet": {
            "estimated_diameter_min": 83.279867942,
            "estimated_diameter_max": 186.2194458756
        }
    },
    "is_potentially_hazardous_asteroid": false,
    "close_approach_data": [
        {
            "close_approach_date": "2006-11-16",
            "close_approach_date_full": "2006-Nov-16 02:45",
            "epoch_date_close_approach": 1163645100000,
            "relative_velocity": {
                "kilometers_per_second": "9.9427377813",
                "kilometers_per_hour": "35793.8560126039",
                "miles_per_hour": "22240.9101429427"
            },
            "miss_distance": {
                "astronomical": "0.0132746298",
                "lunar": "5.1638309922",
                "kilometers": "1985856.343118526",
                "miles": "1233953.9124106188"
            },
            "orbiting_body": "Earth"
        },
        {
            "close_approach_date": "2010-09-03",
            "close_approach_date_full": "2010-Sep-03 08:04",
            "epoch_date_close_approach": 1283501040000,
            "relative_velocity": {
                "kilometers_per_second": "20.3248055909",
                "kilometers_per_hour": "73169.3001271684",
                "miles_per_hour": "45464.5576262397"
            },
            "miss_distance": {
                "astronomical": "0.4053358343",
                "lunar": "157.6756395427",
                "kilometers": "60637377.445952941",
                "miles": "37678319.1780389458"
            },
            "orbiting_body": "Earth"
        }
    ],
    "orbital_data": {
        "orbit_id": "11",
        "orbit_determination_date": "2017-04-06 09:07:36",
        "first_observation_date": "2006-11-18",
        "last_observation_date": "2006-11-27",
        "data_arc_in_days": 9,
        "observations_used": 40,
        "orbit_uncertainty": "7",
        "minimum_orbit_intersection": ".00190586",
        "jupiter_tisserand_invariant": "3.185",
        "epoch_osculation": "2459000.5",
        "eccentricity": ".6048026002993713",
        "semi_major_axis": "2.480421185858832",
        "inclination": "8.718635386914189",
        "ascending_node_longitude": "231.9625832705346",
        "orbital_period": "1426.877123053607",
        "perihelion_distance": ".9802560028137602",
        "perihelion_argument": "166.1781398724057",
        "aphelion_distance": "3.980586368903903",
        "perihelion_time": "2458332.698469744511",
        "mean_anomaly": "168.4858121332037",
        "mean_motion": ".2522992303847281",
        "equinox": "J2000",
        "orbit_class": {
            "orbit_class_type": "APO",
            "orbit_class_description": "Near-Earth asteroid orbits which cross the Earth’s orbit similar to that of 1862 Apollo",
            "orbit_class_range": "a (semi-major axis) > 1.0 AU; q (perihelion) < 1.017 AU"
        }
    },
    "is_sentry_object": false
}